SPOT 6                  
1 38755U 12047A   26191.31679083  .00000138  00000+0  39507-4 0  9997
2 38755  98.2109 258.3540 0001144  82.1383 277.9946 14.58537321736426
SPOT 7                  
1 40053U 14034A   26191.26222488  .00000016  00000+0  12420-4 0  9996
2 40053  98.0618 253.1584 0001553  97.9251 262.2126 14.60977732640503
